{"type": "FeatureCollection", "features": [ {"type": "Feature", "properties": {"norad_id": 66605, "name": "STARLINK-36052", "group": "last-30-days", "lat": 38.32146715846912, "lon": -168.6301436280645, "alt_km": 439.18320536067677, "timestamp": "2025-12-22T22:44:19.649056+00:00", "meta": {"OBJECT_NAME": "STARLINK-36052", "OBJECT_ID": "2025-270T", "EPOCH": "2025-12-22T14:00:01.999872", "MEAN_MOTION": 15.40660371, "ECCENTRICITY": 0.00019504, "INCLINATION": 43, "RA_OF_ASC_NODE": 135.4563, "ARG_OF_PERICENTER": 271.9068, "MEAN_ANOMALY": 291.7521, "EPHEMERIS_TYPE": 0, "CLASSIFICATION_TYPE": "U", "NORAD_CAT_ID": 66605, "ELEMENT_SET_NO": 999, "REV_AT_EPOCH": 598, "BSTAR": 0.00042137064, "MEAN_MOTION_DOT": 0.00017315, "MEAN_MOTION_DDOT": 0}, "tle": {"line1": "1 66605U 25270T   25356.58335648  .00017315  00000+0  42137-3 0  9998", "line2": "2 66605  43.0000 135.4563 0001950 271.9068 291.7521 15.40660371  5989"}}, "geometry": {"type": "Point", "coordinates": [-168.6301436280645, 38.32146715846912]}}, {"type": "Feature", "properties": {"norad_id": 66606, "name": "STARLINK-36063", "group": "last-30-days", "lat": -34.150132188126, "lon": -0.3489187502758908, "alt_km": 416.3685131754146, "timestamp": "2025-12-22T22:44:19.649066+00:00", "meta": {"OBJECT_NAME": "STARLINK-36063", "OBJECT_ID": "2025-270U", "EPOCH": "2025-12-19T11:48:20.511648", "MEAN_MOTION": 15.50662232, "ECCENTRICITY": 0.0001816, "INCLINATION": 42.9987, "RA_OF_ASC_NODE": 153.1595, "ARG_OF_PERICENTER": 282.0515, "MEAN_ANOMALY": 78.0141, "EPHEMERIS_TYPE": 0, "CLASSIFICATION_TYPE": "U", "NORAD_CAT_ID": 66606, "ELEMENT_SET_NO": 999, "REV_AT_EPOCH": 539, "BSTAR": 0.00079676, "MEAN_MOTION_DOT": 0.0004682, "MEAN_MOTION_DDOT": 0}, "tle": {"line1": "1 66606U 25270U   25353.49190407  .00046820  00000+0  79676-3 0  9999", "line2": "2 66606  42.9987 153.1595 0001816 282.0515  78.0141 15.50662232  5393"}}, "geometry": {"type": "Point", "coordinates": [-0.3489187502758908, -34.150132188126]}}, {"type": "Feature", "properties": {"norad_id": 66607, "name": "STARLINK-35993", "group": "last-30-days", "lat": 41.80246701663784, "lon": -153.0190553492555, "alt_km": 438.68553582547156, "timestamp": "2025-12-22T22:44:19.649079+00:00", "meta": {"OBJECT_NAME": "STARLINK-35993", "OBJECT_ID": "2025-270V", "EPOCH": "2025-12-22T14:00:01.999872", "MEAN_MOTION": 15.40663934, "ECCENTRICITY": 0.00018016, "INCLINATION": 42.9999, "RA_OF_ASC_NODE": 135.4264, "ARG_OF_PERICENTER": 261.9784, "MEAN_ANOMALY": 314.1136, "EPHEMERIS_TYPE": 0, "CLASSIFICATION_TYPE": "U", "NORAD_CAT_ID": 66607, "ELEMENT_SET_NO": 999, "REV_AT_EPOCH": 588, "BSTAR": 0.00044234921, "MEAN_MOTION_DOT": 0.00018197, "MEAN_MOTION_DDOT": 0}, "tle": {"line1": "1 66607U 25270V   25356.58335648  .00018197  00000+0  44235-3 0  9990", "line2": "2 66607  42.9999 135.4264 0001801 261.9784 314.1136 15.40663934  5882"}}, "geometry": {"type": "Point", "coordinates": [-153.0190553492555, 41.80246701663784]}}, {"type": "Feature", "properties": {"norad_id": 66608, "name": "STARLINK-36036", "group": "last-30-days", "lat": -34.95667087807081, "lon": 1.5403079207947763, "alt_km": 416.0895408043052, "timestamp": "2025-12-22T22:44:19.649092+00:00", "meta": {"OBJECT_NAME": "STARLINK-36036", "OBJECT_ID": "2025-270W", "EPOCH": "2025-12-19T11:47:53.026080", "MEAN_MOTION": 15.50612484, "ECCENTRICITY": 0.0001538, "INCLINATION": 42.999, "RA_OF_ASC_NODE": 153.1562, "ARG_OF_PERICENTER": 266.4602, "MEAN_ANOMALY": 93.6082, "EPHEMERIS_TYPE": 0, "CLASSIFICATION_TYPE": "U", "NORAD_CAT_ID": 66608, "ELEMENT_SET_NO": 999, "REV_AT_EPOCH": 523, "BSTAR": 0.0010303, "MEAN_MOTION_DOT": 0.00060643, "MEAN_MOTION_DDOT": 0}, "tle": {"line1": "1 66608U 25270W   25353.49158595  .00060643  00000+0  10303-2 0  9993", "line2": "2 66608  42.9990 153.1562 0001538 266.4602  93.6082 15.50612484  5231"}}, "geometry": {"type": "Point", "coordinates": [1.5403079207947763, -34.95667087807081]}}, {"type": "Feature", "properties": {"norad_id": 66609, "name": "STARLINK-36034", "group": "last-30-days", "lat": -34.13677837705252, "lon": -0.378526292504923, "alt_km": 417.711265267164, "timestamp": "2025-12-22T22:44:19.649102+00:00", "meta": {"OBJECT_NAME": "STARLINK-36034", "OBJECT_ID": "2025-270X", "EPOCH": "2025-12-20T17:09:50.095296", "MEAN_MOTION": 15.50362019, "ECCENTRICITY": 0.00048554, "INCLINATION": 42.9992, "RA_OF_ASC_NODE": 145.9955, "ARG_OF_PERICENTER": 131.0653, "MEAN_ANOMALY": 229.0628, "EPHEMERIS_TYPE": 0, "CLASSIFICATION_TYPE": "U", "NORAD_CAT_ID": 66609, "ELEMENT_SET_NO": 999, "REV_AT_EPOCH": 542, "BSTAR": 0.0011127835, "MEAN_MOTION_DOT": 0.00065002, "MEAN_MOTION_DDOT": 0}, "tle": {"line1": "1 66609U 25270X   25354.71516314  .00065002  00000+0  11128-2 0  9997", "line2": "2 66609  42.9992 145.9955 0004855 131.0653 229.0628 15.50362019  5425"}}, "geometry": {"type": "Point", "coordinates": [-0.378526292504923, -34.13677837705252]}}, {"type": "Feature", "properties": {"norad_id": 66610, "name": "STARLINK-35680", "group": "last-30-days", "lat": 41.667330391828486, "lon": -119.48695972940776, "alt_km": 438.813968528445, "timestamp": "2025-12-22T22:44:19.649112+00:00", "meta": {"OBJECT_NAME": "STARLINK-35680", "OBJECT_ID": "2025-270Y", "EPOCH": "2025-12-22T14:00:01.999872", "MEAN_MOTION": 15.40667214, "ECCENTRICITY": 0.00019616, "INCLINATION": 42.9997, "RA_OF_ASC_NODE": 135.3648, "ARG_OF_PERICENTER": 281.5897, "MEAN_ANOMALY": 319.3729, "EPHEMERIS_TYPE": 0, "CLASSIFICATION_TYPE": "U", "NORAD_CAT_ID": 66610, "ELEMENT_SET_NO": 999, "REV_AT_EPOCH": 609, "BSTAR": 0.00043436183, "MEAN_MOTION_DOT": 0.00017864, "MEAN_MOTION_DDOT": 0}, "tle": {"line1": "1 66610U 25270Y   25356.58335648  .00017864  00000+0  43436-3 0  9996", "line2": "2 66610  42.9997 135.3648 0001961 281.5897 319.3729 15.40667214  6093"}}, "geometry": {"type": "Point", "coordinates": [-119.48695972940776, 41.667330391828486]}}, {"type": "Feature", "properties": {"norad_id": 66611, "name": "STARLINK-35583", "group": "last-30-days", "lat": 32.636863982521994, "lon": -90.20858776128199, "alt_km": 439.7806178181081, "timestamp": "2025-12-22T22:44:19.649123+00:00", "meta": {"OBJECT_NAME": "STARLINK-35583", "OBJECT_ID": "2025-270Z", "EPOCH": "2025-12-22T14:00:01.999872", "MEAN_MOTION": 15.4067159, "ECCENTRICITY": 0.00014099, "INCLINATION": 42.9998, "RA_OF_ASC_NODE": 135.3046, "ARG_OF_PERICENTER": 281.3688, "MEAN_ANOMALY": 344.4828, "EPHEMERIS_TYPE": 0, "CLASSIFICATION_TYPE": "U", "NORAD_CAT_ID": 66611, "ELEMENT_SET_NO": 999, "REV_AT_EPOCH": 609, "BSTAR": 0.00030083621, "MEAN_MOTION_DOT": 0.00012272, "MEAN_MOTION_DDOT": 0}, "tle": {"line1": "1 66611U 25270Z   25356.58335648  .00012272  00000+0  30084-3 0  9990", "line2": "2 66611  42.9998 135.3046 0001409 281.3688 344.4828 15.40671590  6091"}}, "geometry": {"type": "Point", "coordinates": [-90.20858776128199, 32.636863982521994]}}, {"type": "Feature", "properties": {"norad_id": 66612, "name": "STARLINK-36039", "group": "last-30-days", "lat": -35.73325386039083, "lon": 4.343551700825895, "alt_km": 446.1210445218894, "timestamp": "2025-12-22T22:44:19.649133+00:00", "meta": {"OBJECT_NAME": "STARLINK-36039", "OBJECT_ID": "2025-270AA", "EPOCH": "2025-12-22T03:02:09.628512", "MEAN_MOTION": 15.40704556, "ECCENTRICITY": 0.0001793, "INCLINATION": 43.0006, "RA_OF_ASC_NODE": 138.5371, "ARG_OF_PERICENTER": 273.4132, "MEAN_ANOMALY": 86.6519, "EPHEMERIS_TYPE": 0, "CLASSIFICATION_TYPE": "U", "NORAD_CAT_ID": 66612, "ELEMENT_SET_NO": 999, "REV_AT_EPOCH": 579, "BSTAR": 6.2807293e-05, "MEAN_MOTION_DOT": 2.321e-05, "MEAN_MOTION_DDOT": 0}, "tle": {"line1": "1 66612U 25270AA  25356.12650033  .00002321  00000+0  62807-4 0  9992", "line2": "2 66612  43.0006 138.5371 0001793 273.4132  86.6519 15.40704556  5799"}}, "geometry": {"type": "Point", "coordinates": [4.343551700825895, -35.73325386039083]}}, {"type": "Feature", "properties": {"norad_id": 66613, "name": "STARLINK-36037", "group": "last-30-days", "lat": -42.67707118914485, "lon": 35.42502356451847, "alt_km": 445.8776951208456, "timestamp": "2025-12-22T22:44:19.649143+00:00", "meta": {"OBJECT_NAME": "STARLINK-36037", "OBJECT_ID": "2025-270AB", "EPOCH": "2025-12-22T10:42:28.564416", "MEAN_MOTION": 15.4074999, "ECCENTRICITY": 0.00021, "INCLINATION": 42.9995, "RA_OF_ASC_NODE": 136.6337, "ARG_OF_PERICENTER": 291.7548, "MEAN_ANOMALY": 68.3085, "EPHEMERIS_TYPE": 0, "CLASSIFICATION_TYPE": "U", "NORAD_CAT_ID": 66613, "ELEMENT_SET_NO": 999, "REV_AT_EPOCH": 584, "BSTAR": 0.0012513172, "MEAN_MOTION_DOT": 0.00052416, "MEAN_MOTION_DDOT": 0}, "tle": {"line1": "1 66613U 25270AB  25356.44616394  .00052416  00000+0  12513-2 0  9997", "line2": "2 66613  42.9995 136.6337 0002100 291.7548  68.3085 15.40749990  5845"}}, "geometry": {"type": "Point", "coordinates": [35.42502356451847, -42.67707118914485]}}, {"type": "Feature", "properties": {"norad_id": 66614, "name": "STARLINK-36040", "group": "last-30-days", "lat": 10.716536833474482, "lon": 145.19298026338316, "alt_km": 441.83634458376946, "timestamp": "2025-12-22T22:44:19.649154+00:00", "meta": {"OBJECT_NAME": "STARLINK-36040", "OBJECT_ID": "2025-270AC", "EPOCH": "2025-12-22T10:13:26.238432", "MEAN_MOTION": 15.40742979, "ECCENTRICITY": 0.00010489, "INCLINATION": 42.997, "RA_OF_ASC_NODE": 136.4801, "ARG_OF_PERICENTER": 294.8522, "MEAN_ANOMALY": 65.2225, "EPHEMERIS_TYPE": 0, "CLASSIFICATION_TYPE": "U", "NORAD_CAT_ID": 66614, "ELEMENT_SET_NO": 999, "REV_AT_EPOCH": 568, "BSTAR": 0.0015608689, "MEAN_MOTION_DOT": 0.00065553, "MEAN_MOTION_DDOT": 0}, "tle": {"line1": "1 66614U 25270AC  25356.42599813  .00065553  00000+0  15609-2 0  9997", "line2": "2 66614  42.9970 136.4801 0001048 294.8522  65.2225 15.40742979  5683"}}, "geometry": {"type": "Point", "coordinates": [145.19298026338316, 10.716536833474482]}}]}